[{"OBJECT_NAME":"NUSAT-41 (C PAYNE-G)","OBJECT_ID":"2023-084N","EPOCH":"2026-03-09T21:55:54.837696","MEAN_MOTION":15.29680045,"ECCENTRICITY":0.00062175,"INCLINATION":97.5351,"RA_OF_ASC_NODE":204.1011,"ARG_OF_PERICENTER":322.2064,"MEAN_ANOMALY":37.8738,"EPHEMERIS_TYPE":0,"CLASSIFICATION_TYPE":"U","NORAD_CAT_ID":56944,"ELEMENT_SET_NO":999,"REV_AT_EPOCH":15260,"BSTAR":0.00059912824,"MEAN_MOTION_DOT":0.0001718,"MEAN_MOTION_DDOT":0},{"OBJECT_NAME":"STARLINK-35189","OBJECT_ID":"2025-212A","EPOCH":"2026-03-09T22:19:19.854624","MEAN_MOTION":15.30212031,"ECCENTRICITY":0.0001444,"INCLINATION":53.1592,"RA_OF_ASC_NODE":344.3256,"ARG_OF_PERICENTER":106.1295,"MEAN_ANOMALY":253.9865,"EPHEMERIS_TYPE":0,"CLASSIFICATION_TYPE":"U","NORAD_CAT_ID":65676,"ELEMENT_SET_NO":999,"REV_AT_EPOCH":2723,"BSTAR":0.00095248507,"MEAN_MOTION_DOT":0.00027967,"MEAN_MOTION_DDOT":0}]
